{
  "type": "FeatureCollection",
  "features": [
    {
      "type": "Feature",
      "properties": {
        "norad_id": 32332,
        "name": "FENGYUN 1C DEB",
        "group": "fengyun-1c-debris",
        "lat": 78.15053089280416,
        "lon": -92.63579149218113,
        "alt_km": 1040.343944414859,
        "timestamp": "2025-12-09T05:43:21.012478+00:00",
        "meta_object_name": "FENGYUN 1C DEB",
        "meta_object_id": "1999-025CXZ",
        "meta_epoch": "2025-12-05T10:09:55.704096",
        "meta_mean_motion": 13.97072998,
        "meta_eccentricity": 0.02849151,
        "meta_inclination": 99.1331,
        "meta_ra_of_asc_node": 33.5093,
        "meta_arg_of_pericenter": 332.9459,
        "meta_mean_anomaly": 25.7092,
        "meta_ephemeris_type": 0,
        "meta_classification_type": "U",
        "meta_norad_cat_id": 32332,
        "meta_element_set_no": 999,
        "meta_rev_at_epoch": 92934,
        "meta_bstar": 0.0024167195,
        "meta_mean_motion_dot": 4.715e-05,
        "meta_mean_motion_ddot": 0,
        "tle_line1": "1 32332U 99025CXZ 25339.42356139  .00004715  00000+0  24167-2 0  9991",
        "tle_line2": "2 32332  99.1331  33.5093 0284915 332.9459  25.7092 13.97072998929345"
      },
      "geometry": {
        "type": "Point",
        "coordinates": [
          -92.63579149218113,
          78.15053089280416
        ]
      }
    },
    {
      "type": "Feature",
      "properties": {
        "norad_id": 32334,
        "name": "FENGYUN 1C DEB",
        "group": "fengyun-1c-debris",
        "lat": -49.28654850102806,
        "lon": -153.32041300120073,
        "alt_km": 871.1939440269598,
        "timestamp": "2025-12-09T05:43:21.012488+00:00",
        "meta_object_name": "FENGYUN 1C DEB",
        "meta_object_id": "1999-025CYB",
        "meta_epoch": "2025-12-08T14:54:57.046176",
        "meta_mean_motion": 14.01636852,
        "meta_eccentricity": 0.006632,
        "meta_inclination": 99.2531,
        "meta_ra_of_asc_node": 36.974,
        "meta_arg_of_pericenter": 292.6104,
        "meta_mean_anomaly": 66.8054,
        "meta_ephemeris_type": 0,
        "meta_classification_type": "U",
        "meta_norad_cat_id": 32334,
        "meta_element_set_no": 999,
        "meta_rev_at_epoch": 93882,
        "meta_bstar": 0.0006177,
        "meta_mean_motion_dot": 9.07e-06,
        "meta_mean_motion_ddot": 0,
        "tle_line1": "1 32334U 99025CYB 25342.62149359  .00000907  00000+0  61770-3 0  9994",
        "tle_line2": "2 32334  99.2531  36.9740 0066320 292.6104  66.8054 14.01636852938821"
      },
      "geometry": {
        "type": "Point",
        "coordinates": [
          -153.32041300120073,
          -49.28654850102806
        ]
      }
    },
    {
      "type": "Feature",
      "properties": {
        "norad_id": 32340,
        "name": "FENGYUN 1C DEB",
        "group": "fengyun-1c-debris",
        "lat": -54.38223304863258,
        "lon": 1.4176259684133536,
        "alt_km": 629.8466862616597,
        "timestamp": "2025-12-09T05:43:21.012499+00:00",
        "meta_object_name": "FENGYUN 1C DEB",
        "meta_object_id": "1999-025CYH",
        "meta_epoch": "2025-12-08T18:34:14.883168",
        "meta_mean_motion": 14.74401426,
        "meta_eccentricity": 0.0034336,
        "meta_inclination": 98.9824,
        "meta_ra_of_asc_node": 348.1474,
        "meta_arg_of_pericenter": 306.8437,
        "meta_mean_anomaly": 52.9621,
        "meta_ephemeris_type": 0,
        "meta_classification_type": "U",
        "meta_norad_cat_id": 32340,
        "meta_element_set_no": 999,
        "meta_rev_at_epoch": 97138,
        "meta_bstar": 0.0040208,
        "meta_mean_motion_dot": 0.00026966,
        "meta_mean_motion_ddot": 0,
        "tle_line1": "1 32340U 99025CYH 25342.77378337  .00026966  00000+0  40208-2 0  9992",
        "tle_line2": "2 32340  98.9824 348.1474 0034336 306.8437  52.9621 14.74401426971381"
      },
      "geometry": {
        "type": "Point",
        "coordinates": [
          1.4176259684133536,
          -54.38223304863258
        ]
      }
    },
    {
      "type": "Feature",
      "properties": {
        "norad_id": 32342,
        "name": "FENGYUN 1C DEB",
        "group": "fengyun-1c-debris",
        "lat": 76.23431203081307,
        "lon": -46.570168514360724,
        "alt_km": 839.3463901747691,
        "timestamp": "2025-12-09T05:43:21.012530+00:00",
        "meta_object_name": "FENGYUN 1C DEB",
        "meta_object_id": "1999-025CYK",
        "meta_epoch": "2025-12-08T14:38:29.547744",
        "meta_mean_motion": 14.13396341,
        "meta_eccentricity": 0.0007708,
        "meta_inclination": 98.6703,
        "meta_ra_of_asc_node": 351.3444,
        "meta_arg_of_pericenter": 3.4216,
        "meta_mean_anomaly": 120.2683,
        "meta_ephemeris_type": 0,
        "meta_classification_type": "U",
        "meta_norad_cat_id": 32342,
        "meta_element_set_no": 999,
        "meta_rev_at_epoch": 93659,
        "meta_bstar": 0.00019036,
        "meta_mean_motion_dot": 3.15e-06,
        "meta_mean_motion_ddot": 0,
        "tle_line1": "1 32342U 99025CYK 25342.61006421  .00000315  00000+0  19036-3 0  9995",
        "tle_line2": "2 32342  98.6703 351.3444 0007708   3.4216 120.2683 14.13396341936590"
      },
      "geometry": {
        "type": "Point",
        "coordinates": [
          -46.570168514360724,
          76.23431203081307
        ]
      }
    },
    {
      "type": "Feature",
      "properties": {
        "norad_id": 32343,
        "name": "FENGYUN 1C DEB",
        "group": "fengyun-1c-debris",
        "lat": 4.980491578179395,
        "lon": 150.85697495559947,
        "alt_km": 740.8986931409218,
        "timestamp": "2025-12-09T05:43:21.012542+00:00",
        "meta_object_name": "FENGYUN 1C DEB",
        "meta_object_id": "1999-025CYL",
        "meta_epoch": "2025-11-23T04:58:45.910848",
        "meta_mean_motion": 14.1981282,
        "meta_eccentricity": 0.01511129,
        "meta_inclination": 98.6065,
        "meta_ra_of_asc_node": 314.5087,
        "meta_arg_of_pericenter": 183.896,
        "meta_mean_anomaly": 176.1052,
        "meta_ephemeris_type": 0,
        "meta_classification_type": "U",
        "meta_norad_cat_id": 32343,
        "meta_element_set_no": 999,
        "meta_rev_at_epoch": 64436,
        "meta_bstar": 0.00029765257,
        "meta_mean_motion_dot": 6.65e-06,
        "meta_mean_motion_ddot": 0,
        "tle_line1": "1 32343U 99025CYL 25327.20747582  .00000665  00000+0  29765-3 0  9992",
        "tle_line2": "2 32343  98.6065 314.5087 0151112 183.8960 176.1052 14.19812820644366"
      },
      "geometry": {
        "type": "Point",
        "coordinates": [
          150.85697495559947,
          4.980491578179395
        ]
      }
    },
    {
      "type": "Feature",
      "properties": {
        "norad_id": 32350,
        "name": "FENGYUN 1C DEB",
        "group": "fengyun-1c-debris",
        "lat": 40.60206539243207,
        "lon": 20.92125327026526,
        "alt_km": 714.6545020548483,
        "timestamp": "2025-12-09T05:43:21.012552+00:00",
        "meta_object_name": "FENGYUN 1C DEB",
        "meta_object_id": "1999-025CYT",
        "meta_epoch": "2025-12-05T20:31:39.778464",
        "meta_mean_motion": 14.52477778,
        "meta_eccentricity": 0.0267162,
        "meta_inclination": 98.2291,
        "meta_ra_of_asc_node": 24.725,
        "meta_arg_of_pericenter": 319.9483,
        "meta_mean_anomaly": 38.2279,
        "meta_ephemeris_type": 0,
        "meta_classification_type": "U",
        "meta_norad_cat_id": 32350,
        "meta_element_set_no": 999,
        "meta_rev_at_epoch": 97427,
        "meta_bstar": 0.0012950671,
        "meta_mean_motion_dot": 8.414e-05,
        "meta_mean_motion_ddot": 0,
        "tle_line1": "1 32350U 99025CYT 25339.85532151  .00008414  00000+0  12951-2 0  9996",
        "tle_line2": "2 32350  98.2291  24.7250 0267162 319.9483  38.2279 14.52477778974279"
      },
      "geometry": {
        "type": "Point",
        "coordinates": [
          20.92125327026526,
          40.60206539243207
        ]
      }
    },
    {
      "type": "Feature",
      "properties": {
        "norad_id": 32352,
        "name": "FENGYUN 1C DEB",
        "group": "fengyun-1c-debris",
        "lat": -75.76921228578749,
        "lon": -59.32365596327822,
        "alt_km": 774.8819719739649,
        "timestamp": "2025-12-09T05:43:21.012563+00:00",
        "meta_object_name": "FENGYUN 1C DEB",
        "meta_object_id": "1999-025CYV",
        "meta_epoch": "2025-12-03T13:28:47.441280",
        "meta_mean_motion": 14.41397629,
        "meta_eccentricity": 0.01208838,
        "meta_inclination": 98.7762,
        "meta_ra_of_asc_node": 257.3194,
        "meta_arg_of_pericenter": 198.3056,
        "meta_mean_anomaly": 161.3763,
        "meta_ephemeris_type": 0,
        "meta_classification_type": "U",
        "meta_norad_cat_id": 32352,
        "meta_element_set_no": 999,
        "meta_rev_at_epoch": 65137,
        "meta_bstar": 0.00035669846,
        "meta_mean_motion_dot": 1.21e-05,
        "meta_mean_motion_ddot": 0,
        "tle_line1": "1 32352U 99025CYV 25337.56166020  .00001210  00000+0  35670-3 0  9993",
        "tle_line2": "2 32352  98.7762 257.3194 0120883 198.3056 161.3763 14.41397629651376"
      },
      "geometry": {
        "type": "Point",
        "coordinates": [
          -59.32365596327822,
          -75.76921228578749
        ]
      }
    }
  ]
}